IRIDIUM 33 DEB          
1 34870U 97051MQ  26072.83906308  .00010234  00000+0  13950-2 0  9997
2 34870  86.3057 272.2835 0014900 232.0173 139.8070 14.78519763902565
IRIDIUM 33 DEB          
1 34896U 97051MY  26073.34915659  .00004493  00000+0  78901-3 0  9999
2 34896  86.3250 285.5700 0023564 264.6471 218.6526 14.67329039889620
IRIDIUM 33 DEB          
1 34926U 97051NF  26073.66551859  .00030910  00000+0  62363-2 0  9993
2 34926  86.1332 325.4891 0077702 345.4676  43.5609 14.59379540877959
IRIDIUM 33 DEB          
1 34985U 97051NR  26073.12194507  .00002637  00000+0  78863-3 0  9990
2 34985  86.3734  17.8737 0019083 286.5530 132.6840 14.42496411884926
IRIDIUM 33 DEB          
1 35051U 97051NX  26067.17150982  .00003107  00000+0  82974-3 0  9993
2 35051  86.3274 331.6303 0008564 149.5010 210.6693 14.48101451882327
IRIDIUM 33 DEB          
1 35052U 97051NY  26073.46718175  .00000625  00000+0  19760-3 0  9992
2 35052  86.3356 341.1682 0012767 134.0562 226.1690 14.38634255885948
IRIDIUM 33 DEB          
1 35080U 97051PF  26073.55832996  .00163129  00000+0  10983-1 0  9996
2 35080  86.2087   7.9369 0032008 194.7587 165.2718 15.05517389710593
IRIDIUM 33 DEB          
1 35297U 97051PM  26072.15212444  .00002441  00000+0  68459-3 0  9993
2 35297  86.3888  24.1447 0014383 196.3803 163.6937 14.45633446717325
IRIDIUM 33 DEB          
1 35299U 97051PP  26072.24505468  .00003927  00000+0  11774-2 0  9993
2 35299  86.2917 353.7678 0054854 161.0709 351.0792 14.41710385876341
IRIDIUM 33 DEB          
1 35480U 97051QA  26073.02973102  .00002437  00000+0  61961-3 0  9995
2 35480  86.3610 345.3335 0014074 150.5242 209.6759 14.50312748883548
IRIDIUM 33 DEB          
1 35484U 97051QE  26070.38238265  .00047440  00000+0  30875-2 0  9991
2 35484  86.3516 310.9801 0013960 156.7141 203.4731 15.07676082633476
IRIDIUM 33 DEB          
1 35488U 97051QJ  26071.95065608  .00010481  00000+0  12049-2 0  9996
2 35488  86.3199 259.1962 0027345  80.5726 279.8587 14.85420951896041
IRIDIUM 33 DEB          
1 35616U 97051QN  26073.59599803  .00017218  00000+0  20176-2 0  9995
2 35616  86.3523 303.7426 0007275 207.8537 152.2298 14.84900796889369
IRIDIUM 33 DEB          
1 35618U 97051QQ  26072.97198964  .00001775  00000+0  42460-3 0  9993
2 35618  86.3376 313.6088 0031509  73.6861 286.7807 14.52751513667186
IRIDIUM 33 DEB          
1 35620U 97051QS  26071.71316453  .00008084  00000+0  22827-2 0  9996
2 35620  86.3896 179.4500 0130365 320.6532  38.5249 14.40689918612609
IRIDIUM 33 DEB          
1 35622U 97051QU  26073.15997978  .00051529  00000+0  27685-2 0  9994
2 35622  86.1925 218.1318 0007060 278.7483 204.5155 15.14665156887394
