[{"OBJECT_NAME":"IRIDIUM 33 DEB","OBJECT_ID":"1997-051MQ","EPOCH":"2026-03-13T20:08:15.050112","MEAN_MOTION":14.78519763,"ECCENTRICITY":0.00149007,"INCLINATION":86.3057,"RA_OF_ASC_NODE":272.2835,"ARG_OF_PERICENTER":232.0173,"MEAN_ANOMALY":139.807,"EPHEMERIS_TYPE":0,"CLASSIFICATION_TYPE":"U","NORAD_CAT_ID":34870,"ELEMENT_SET_NO":999,"REV_AT_EPOCH":90256,"BSTAR":0.0013949965,"MEAN_MOTION_DOT":0.00010234,"MEAN_MOTION_DDOT":0},{"OBJECT_NAME":"IRIDIUM 33 DEB","OBJECT_ID":"1997-051MY","EPOCH":"2026-03-14T08:22:47.129376","MEAN_MOTION":14.67329039,"ECCENTRICITY":0.00235647,"INCLINATION":86.325,"RA_OF_ASC_NODE":285.57,"ARG_OF_PERICENTER":264.6471,"MEAN_ANOMALY":218.6526,"EPHEMERIS_TYPE":0,"CLASSIFICATION_TYPE":"U","NORAD_CAT_ID":34896,"ELEMENT_SET_NO":999,"REV_AT_EPOCH":88962,"BSTAR":0.00078900784,"MEAN_MOTION_DOT":4.493e-5,"MEAN_MOTION_DDOT":0},{"OBJECT_NAME":"IRIDIUM 33 DEB","OBJECT_ID":"1997-051NF","EPOCH":"2026-03-14T15:58:20.806176","MEAN_MOTION":14.5937954,"ECCENTRICITY":0.00777024,"INCLINATION":86.1332,"RA_OF_ASC_NODE":325.4891,"ARG_OF_PERICENTER":345.4676,"MEAN_ANOMALY":43.5609,"EPHEMERIS_TYPE":0,"CLASSIFICATION_TYPE":"U","NORAD_CAT_ID":34926,"ELEMENT_SET_NO":999,"REV_AT_EPOCH":87795,"BSTAR":0.0062362938,"MEAN_MOTION_DOT":0.0003091,"MEAN_MOTION_DDOT":0},{"OBJECT_NAME":"IRIDIUM 33 DEB","OBJECT_ID":"1997-051NR","EPOCH":"2026-03-14T02:55:36.054048","MEAN_MOTION":14.42496411,"ECCENTRICITY":0.00190835,"INCLINATION":86.3734,"RA_OF_ASC_NODE":17.8737,"ARG_OF_PERICENTER":286.553,"MEAN_ANOMALY":132.684,"EPHEMERIS_TYPE":0,"CLASSIFICATION_TYPE":"U","NORAD_CAT_ID":34985,"ELEMENT_SET_NO":999,"REV_AT_EPOCH":88492,"BSTAR":0.00078863322,"MEAN_MOTION_DOT":2.637e-5,"MEAN_MOTION_DDOT":0},{"OBJECT_NAME":"IRIDIUM 33 DEB","OBJECT_ID":"1997-051NX","EPOCH":"2026-03-08T04:06:58.448448","MEAN_MOTION":14.48101451,"ECCENTRICITY":0.00085649,"INCLINATION":86.3274,"RA_OF_ASC_NODE":331.6303,"ARG_OF_PERICENTER":149.501,"MEAN_ANOMALY":210.6693,"EPHEMERIS_TYPE":0,"CLASSIFICATION_TYPE":"U","NORAD_CAT_ID":35051,"ELEMENT_SET_NO":999,"REV_AT_EPOCH":88232,"BSTAR":0.00082973634,"MEAN_MOTION_DOT":3.107e-5,"MEAN_MOTION_DDOT":0},{"OBJECT_NAME":"IRIDIUM 33 DEB","OBJECT_ID":"1997-051NY","EPOCH":"2026-03-14T11:12:44.503200","MEAN_MOTION":14.38634255,"ECCENTRICITY":0.0012767,"INCLINATION":86.3356,"RA_OF_ASC_NODE":341.1682,"ARG_OF_PERICENTER":134.0562,"MEAN_ANOMALY":226.169,"EPHEMERIS_TYPE":0,"CLASSIFICATION_TYPE":"U","NORAD_CAT_ID":35052,"ELEMENT_SET_NO":999,"REV_AT_EPOCH":88594,"BSTAR":0.00019760082,"MEAN_MOTION_DOT":6.25e-6,"MEAN_MOTION_DDOT":0},{"OBJECT_NAME":"IRIDIUM 33 DEB","OBJECT_ID":"1997-051PF","EPOCH":"2026-03-14T13:23:59.708544","MEAN_MOTION":15.05517389,"ECCENTRICITY":0.00320086,"INCLINATION":86.2087,"RA_OF_ASC_NODE":7.9369,"ARG_OF_PERICENTER":194.7587,"MEAN_ANOMALY":165.2718,"EPHEMERIS_TYPE":0,"CLASSIFICATION_TYPE":"U","NORAD_CAT_ID":35080,"ELEMENT_SET_NO":999,"REV_AT_EPOCH":71059,"BSTAR":0.01098333,"MEAN_MOTION_DOT":0.00163129,"MEAN_MOTION_DDOT":0},{"OBJECT_NAME":"IRIDIUM 33 DEB","OBJECT_ID":"1997-051PM","EPOCH":"2026-03-13T03:39:03.551616","MEAN_MOTION":14.45633446,"ECCENTRICITY":0.00143837,"INCLINATION":86.3888,"RA_OF_ASC_NODE":24.1447,"ARG_OF_PERICENTER":196.3803,"MEAN_ANOMALY":163.6937,"EPHEMERIS_TYPE":0,"CLASSIFICATION_TYPE":"U","NORAD_CAT_ID":35297,"ELEMENT_SET_NO":999,"REV_AT_EPOCH":71732,"BSTAR":0.00068458517,"MEAN_MOTION_DOT":2.441e-5,"MEAN_MOTION_DDOT":0},{"OBJECT_NAME":"IRIDIUM 33 DEB","OBJECT_ID":"1997-051PP","EPOCH":"2026-03-13T05:52:52.724352","MEAN_MOTION":14.41710385,"ECCENTRICITY":0.00548544,"INCLINATION":86.2917,"RA_OF_ASC_NODE":353.7678,"ARG_OF_PERICENTER":161.0709,"MEAN_ANOMALY":351.0792,"EPHEMERIS_TYPE":0,"CLASSIFICATION_TYPE":"U","NORAD_CAT_ID":35299,"ELEMENT_SET_NO":999,"REV_AT_EPOCH":87634,"BSTAR":0.0011773722,"MEAN_MOTION_DOT":3.927e-5,"MEAN_MOTION_DDOT":0},{"OBJECT_NAME":"IRIDIUM 33 DEB","OBJECT_ID":"1997-051QA","EPOCH":"2026-03-14T00:42:48.760128","MEAN_MOTION":14.50312748,"ECCENTRICITY":0.00140742,"INCLINATION":86.361,"RA_OF_ASC_NODE":345.3335,"ARG_OF_PERICENTER":150.5242,"MEAN_ANOMALY":209.6759,"EPHEMERIS_TYPE":0,"CLASSIFICATION_TYPE":"U","NORAD_CAT_ID":35480,"ELEMENT_SET_NO":999,"REV_AT_EPOCH":88354,"BSTAR":0.00061960991,"MEAN_MOTION_DOT":2.437e-5,"MEAN_MOTION_DDOT":0},{"OBJECT_NAME":"IRIDIUM 33 DEB","OBJECT_ID":"1997-051QE","EPOCH":"2026-03-11T09:10:37.860960","MEAN_MOTION":15.07676082,"ECCENTRICITY":0.00139607,"INCLINATION":86.3516,"RA_OF_ASC_NODE":310.9801,"ARG_OF_PERICENTER":156.7141,"MEAN_ANOMALY":203.4731,"EPHEMERIS_TYPE":0,"CLASSIFICATION_TYPE":"U","NORAD_CAT_ID":35484,"ELEMENT_SET_NO":999,"REV_AT_EPOCH":63347,"BSTAR":0.0030875216,"MEAN_MOTION_DOT":0.0004744,"MEAN_MOTION_DDOT":0},{"OBJECT_NAME":"IRIDIUM 33 DEB","OBJECT_ID":"1997-051QJ","EPOCH":"2026-03-12T22:48:56.685312","MEAN_MOTION":14.85420951,"ECCENTRICITY":0.00273455,"INCLINATION":86.3199,"RA_OF_ASC_NODE":259.1962,"ARG_OF_PERICENTER":80.5726,"MEAN_ANOMALY":279.8587,"EPHEMERIS_TYPE":0,"CLASSIFICATION_TYPE":"U","NORAD_CAT_ID":35488,"ELEMENT_SET_NO":999,"REV_AT_EPOCH":89604,"BSTAR":0.0012049492,"MEAN_MOTION_DOT":0.00010481,"MEAN_MOTION_DDOT":0},{"OBJECT_NAME":"IRIDIUM 33 DEB","OBJECT_ID":"1997-051QN","EPOCH":"2026-03-14T14:18:14.229792","MEAN_MOTION":14.84900796,"ECCENTRICITY":0.00072755,"INCLINATION":86.3523,"RA_OF_ASC_NODE":303.7426,"ARG_OF_PERICENTER":207.8537,"MEAN_ANOMALY":152.2298,"EPHEMERIS_TYPE":0,"CLASSIFICATION_TYPE":"U","NORAD_CAT_ID":35616,"ELEMENT_SET_NO":999,"REV_AT_EPOCH":88936,"BSTAR":0.0020175547,"MEAN_MOTION_DOT":0.00017218,"MEAN_MOTION_DDOT":0},{"OBJECT_NAME":"IRIDIUM 33 DEB","OBJECT_ID":"1997-051QQ","EPOCH":"2026-03-13T23:19:39.904896","MEAN_MOTION":14.52751513,"ECCENTRICITY":0.00315091,"INCLINATION":86.3376,"RA_OF_ASC_NODE":313.6088,"ARG_OF_PERICENTER":73.6861,"MEAN_ANOMALY":286.7807,"EPHEMERIS_TYPE":0,"CLASSIFICATION_TYPE":"U","NORAD_CAT_ID":35618,"ELEMENT_SET_NO":999,"REV_AT_EPOCH":66718,"BSTAR":0.0004245969,"MEAN_MOTION_DOT":1.775e-5,"MEAN_MOTION_DDOT":0},{"OBJECT_NAME":"IRIDIUM 33 DEB","OBJECT_ID":"1997-051QS","EPOCH":"2026-03-12T17:06:57.415392","MEAN_MOTION":14.40689918,"ECCENTRICITY":0.01303659,"INCLINATION":86.3896,"RA_OF_ASC_NODE":179.45,"ARG_OF_PERICENTER":320.6532,"MEAN_ANOMALY":38.5249,"EPHEMERIS_TYPE":0,"CLASSIFICATION_TYPE":"U","NORAD_CAT_ID":35620,"ELEMENT_SET_NO":999,"REV_AT_EPOCH":61260,"BSTAR":0.0022826681,"MEAN_MOTION_DOT":8.084e-5,"MEAN_MOTION_DDOT":0},{"OBJECT_NAME":"IRIDIUM 33 DEB","OBJECT_ID":"1997-051QU","EPOCH":"2026-03-14T03:50:22.252992","MEAN_MOTION":15.14665156,"ECCENTRICITY":0.00070602,"INCLINATION":86.1925,"RA_OF_ASC_NODE":218.1318,"ARG_OF_PERICENTER":278.7483,"MEAN_ANOMALY":204.5155,"EPHEMERIS_TYPE":0,"CLASSIFICATION_TYPE":"U","NORAD_CAT_ID":35622,"ELEMENT_SET_NO":999,"REV_AT_EPOCH":88739,"BSTAR":0.002768467,"MEAN_MOTION_DOT":0.00051529,"MEAN_MOTION_DDOT":0}]
